{
  "norad_id": 58884,
  "name": "STARLINK-31315",
  "history": [
    {
      "epoch": "2026-03-28T19:41:03.287616Z",
      "apogee_km": 475.9677478251024,
      "perigee_km": 474.45000584721856,
      "latitude_deg": 2.9764284424836e-05,
      "longitude_deg": 86.10788460022214,
      "height_km": 476.01467799923165,
      "semi_major_axis_km": 6853.34587683616,
      "eccentricity": 0.00011073,
      "inclination_deg": 53.1593,
      "raan_deg": 207.6067,
      "arg_perigee_deg": 83.0041,
      "mean_anomaly_deg": 277.1086,
      "mean_motion_rev_day": 15.30202074
    }
  ]
}